{
  "type": "FeatureCollection",
  "features": [
    {
      "type": "Feature",
      "properties": {
        "norad_id": 40128,
        "name": "GSAT0201 (GALILEO 5)",
        "group": "gnss",
        "lat": 35.825255941966155,
        "lon": -40.20586255966837,
        "alt_km": 23394.166274888223,
        "timestamp": "2025-12-11T22:43:47.510000+00:00",
        "meta_object_name": "GSAT0201 (GALILEO 5)",
        "meta_object_id": "2014-050A",
        "meta_epoch": "2025-12-09T03:42:58.517280",
        "meta_mean_motion": 1.8551953,
        "meta_eccentricity": 0.164755,
        "meta_inclination": 49.0809,
        "meta_ra_of_asc_node": 281.2097,
        "meta_arg_of_pericenter": 172.1436,
        "meta_mean_anomaly": 190.8359,
        "meta_ephemeris_type": 0,
        "meta_classification_type": "U",
        "meta_norad_cat_id": 40128,
        "meta_element_set_no": 999,
        "meta_rev_at_epoch": 7479,
        "meta_bstar": 0,
        "meta_mean_motion_dot": -7.1e-07,
        "meta_mean_motion_ddot": 0,
        "tle_line1": "1 40128U 14050A   25343.15484395 -.00000071  00000+0  00000+0 0  9998",
        "tle_line2": "2 40128  49.0809 281.2097 1647550 172.1436 190.8359  1.85519530 74797"
      },
      "geometry": {
        "type": "Point",
        "coordinates": [
          -40.20586255966837,
          35.825255941966155
        ]
      }
    },
    {
      "type": "Feature",
      "properties": {
        "norad_id": 40129,
        "name": "GSAT0202 (GALILEO 6)",
        "group": "gnss",
        "lat": -48.81901980444598,
        "lon": -161.62348857806805,
        "alt_km": 21847.04060632349,
        "timestamp": "2025-12-11T22:43:47.510011+00:00",
        "meta_object_name": "GSAT0202 (GALILEO 6)",
        "meta_object_id": "2014-050B",
        "meta_epoch": "2025-12-08T20:55:50.636640",
        "meta_mean_motion": 1.85520286,
        "meta_eccentricity": 0.16482545,
        "meta_inclination": 49.097,
        "meta_ra_of_asc_node": 280.3049,
        "meta_arg_of_pericenter": 172.8865,
        "meta_mean_anomaly": 189.8198,
        "meta_ephemeris_type": 0,
        "meta_classification_type": "U",
        "meta_norad_cat_id": 40129,
        "meta_element_set_no": 999,
        "meta_rev_at_epoch": 7695,
        "meta_bstar": 0,
        "meta_mean_motion_dot": -6.8e-07,
        "meta_mean_motion_ddot": 0,
        "tle_line1": "1 40129U 14050B   25342.87211385 -.00000068  00000+0  00000+0 0  9990",
        "tle_line2": "2 40129  49.0970 280.3049 1648254 172.8865 189.8198  1.85520286 76958"
      },
      "geometry": {
        "type": "Point",
        "coordinates": [
          -161.62348857806805,
          -48.81901980444598
        ]
      }
    },
    {
      "type": "Feature",
      "properties": {
        "norad_id": 40269,
        "name": "IRNSS-1C",
        "group": "gnss",
        "lat": 4.780010982157837,
        "lon": 144.7344285965583,
        "alt_km": 35738.328895146034,
        "timestamp": "2025-12-11T22:43:47.510023+00:00",
        "meta_object_name": "IRNSS-1C",
        "meta_object_id": "2014-061A",
        "meta_epoch": "2025-12-11T01:02:21.559776",
        "meta_mean_motion": 1.00268,
        "meta_eccentricity": 0.00177237,
        "meta_inclination": 6.0365,
        "meta_ra_of_asc_node": 92.6563,
        "meta_arg_of_pericenter": 2.3092,
        "meta_mean_anomaly": 83.5292,
        "meta_ephemeris_type": 0,
        "meta_classification_type": "U",
        "meta_norad_cat_id": 40269,
        "meta_element_set_no": 999,
        "meta_rev_at_epoch": 4080,
        "meta_bstar": 0,
        "meta_mean_motion_dot": -1.54e-06,
        "meta_mean_motion_ddot": 0,
        "tle_line1": "1 40269U 14061A   25345.04330509 -.00000154  00000+0  00000+0 0  9995",
        "tle_line2": "2 40269   6.0365  92.6563 0017723   2.3092  83.5292  1.00268000 40808"
      },
      "geometry": {
        "type": "Point",
        "coordinates": [
          144.7344285965583,
          4.780010982157837
        ]
      }
    },
    {
      "type": "Feature",
      "properties": {
        "norad_id": 40294,
        "name": "GPS BIIF-8  (PRN 03)",
        "group": "gnss",
        "lat": -8.236733620309202,
        "lon": 32.768938594925245,
        "alt_km": 20151.76964655214,
        "timestamp": "2025-12-11T22:43:47.510036+00:00",
        "meta_object_name": "GPS BIIF-8  (PRN 03)",
        "meta_object_id": "2014-068A",
        "meta_epoch": "2025-12-10T11:09:30.250944",
        "meta_mean_motion": 2.00564629,
        "meta_eccentricity": 0.0060788,
        "meta_inclination": 56.8561,
        "meta_ra_of_asc_node": 38.234,
        "meta_arg_of_pericenter": 69.2281,
        "meta_mean_anomaly": 291.4749,
        "meta_ephemeris_type": 0,
        "meta_classification_type": "U",
        "meta_norad_cat_id": 40294,
        "meta_element_set_no": 999,
        "meta_rev_at_epoch": 8142,
        "meta_bstar": 0,
        "meta_mean_motion_dot": -8.9e-07,
        "meta_mean_motion_ddot": 0,
        "tle_line1": "1 40294U 14068A   25344.46493346 -.00000089  00000+0  00000+0 0  9991",
        "tle_line2": "2 40294  56.8561  38.2340 0060788  69.2281 291.4749  2.00564629 81424"
      },
      "geometry": {
        "type": "Point",
        "coordinates": [
          32.768938594925245,
          -8.236733620309202
        ]
      }
    },
    {
      "type": "Feature",
      "properties": {
        "norad_id": 40315,
        "name": "COSMOS 2501 (702K)",
        "group": "gnss",
        "lat": -63.56983362942991,
        "lon": 103.92574078222788,
        "alt_km": 19113.966634691165,
        "timestamp": "2025-12-11T22:43:47.510050+00:00",
        "meta_object_name": "COSMOS 2501 (702K)",
        "meta_object_id": "2014-075A",
        "meta_epoch": "2025-12-07T20:13:51.362112",
        "meta_mean_motion": 2.13101338,
        "meta_eccentricity": 0.00201356,
        "meta_inclination": 63.6139,
        "meta_ra_of_asc_node": 196.9947,
        "meta_arg_of_pericenter": 204.4913,
        "meta_mean_anomaly": 155.4908,
        "meta_ephemeris_type": 0,
        "meta_classification_type": "U",
        "meta_norad_cat_id": 40315,
        "meta_element_set_no": 999,
        "meta_rev_at_epoch": 8577,
        "meta_bstar": 0,
        "meta_mean_motion_dot": 5.4e-07,
        "meta_mean_motion_ddot": 0,
        "tle_line1": "1 40315U 14075A   25341.84295558  .00000054  00000+0  00000+0 0  9998",
        "tle_line2": "2 40315  63.6139 196.9947 0020135 204.4913 155.4908  2.13101338 85773"
      },
      "geometry": {
        "type": "Point",
        "coordinates": [
          103.92574078222788,
          -63.56983362942991
        ]
      }
    },
    {
      "type": "Feature",
      "properties": {
        "norad_id": 40534,
        "name": "GPS BIIF-9  (PRN 26)",
        "group": "gnss",
        "lat": -51.086757966024564,
        "lon": 99.89314070997057,
        "alt_km": 20411.30041340713,
        "timestamp": "2025-12-11T22:43:47.510061+00:00",
        "meta_object_name": "GPS BIIF-9  (PRN 26)",
        "meta_object_id": "2015-013A",
        "meta_epoch": "2025-12-11T14:12:34.875648",
        "meta_mean_motion": 2.00562655,
        "meta_eccentricity": 0.01070076,
        "meta_inclination": 53.1979,
        "meta_ra_of_asc_node": 211.9377,
        "meta_arg_of_pericenter": 38.4526,
        "meta_mean_anomaly": 322.3807,
        "meta_ephemeris_type": 0,
        "meta_classification_type": "U",
        "meta_norad_cat_id": 40534,
        "meta_element_set_no": 999,
        "meta_rev_at_epoch": 7806,
        "meta_bstar": 0,
        "meta_mean_motion_dot": 2.2e-07,
        "meta_mean_motion_ddot": 0,
        "tle_line1": "1 40534U 15013A   25345.59207032  .00000022  00000+0  00000+0 0  9995",
        "tle_line2": "2 40534  53.1979 211.9377 0107007  38.4526 322.3807  2.00562655 78062"
      },
      "geometry": {
        "type": "Point",
        "coordinates": [
          99.89314070997057,
          -51.086757966024564
        ]
      }
    },
    {
      "type": "Feature",
      "properties": {
        "norad_id": 40544,
        "name": "GSAT0203 (GALILEO 7)",
        "group": "gnss",
        "lat": -56.821191498841124,
        "lon": -101.91531669511518,
        "alt_km": 23208.701840226422,
        "timestamp": "2025-12-11T22:43:47.510072+00:00",
        "meta_object_name": "GSAT0203 (GALILEO 7)",
        "meta_object_id": "2015-017A",
        "meta_epoch": "2025-12-11T12:08:22.810848",
        "meta_mean_motion": 1.70475934,
        "meta_eccentricity": 0.00065093,
        "meta_inclination": 56.8465,
        "meta_ra_of_asc_node": 346.7135,
        "meta_arg_of_pericenter": 271.8959,
        "meta_mean_anomaly": 88.0466,
        "meta_ephemeris_type": 0,
        "meta_classification_type": "U",
        "meta_norad_cat_id": 40544,
        "meta_element_set_no": 999,
        "meta_rev_at_epoch": 6600,
        "meta_bstar": 0,
        "meta_mean_motion_dot": -8.8e-07,
        "meta_mean_motion_ddot": 0,
        "tle_line1": "1 40544U 15017A   25345.50581957 -.00000088  00000+0  00000+0 0  9995",
        "tle_line2": "2 40544  56.8465 346.7135 0006509 271.8959  88.0466  1.70475934 66007"
      },
      "geometry": {
        "type": "Point",
        "coordinates": [
          -101.91531669511518,
          -56.821191498841124
        ]
      }
    }
  ]
}